[{"OBJECT_NAME":"CFOSAT","OBJECT_ID":"2018-083A","EPOCH":"2026-03-09T23:32:27.859200","MEAN_MOTION":15.16355885,"ECCENTRICITY":0.000152,"INCLINATION":97.364,"RA_OF_ASC_NODE":76.4206,"ARG_OF_PERICENTER":123.6668,"MEAN_ANOMALY":236.471,"EPHEMERIS_TYPE":0,"CLASSIFICATION_TYPE":"U","NORAD_CAT_ID":43662,"ELEMENT_SET_NO":999,"REV_AT_EPOCH":40740,"BSTAR":0.00010107599,"MEAN_MOTION_DOT":1.896e-5,"MEAN_MOTION_DDOT":0},{"OBJECT_NAME":"STARLINK-30478","OBJECT_ID":"2023-146W","EPOCH":"2026-03-09T22:00:01.999584","MEAN_MOTION":15.05945063,"ECCENTRICITY":0.00013264,"INCLINATION":42.9997,"RA_OF_ASC_NODE":311.5054,"ARG_OF_PERICENTER":285.7723,"MEAN_ANOMALY":206.7337,"EPHEMERIS_TYPE":0,"CLASSIFICATION_TYPE":"U","NORAD_CAT_ID":57911,"ELEMENT_SET_NO":999,"REV_AT_EPOCH":552,"BSTAR":0.11273641,"MEAN_MOTION_DOT":0.01842676,"MEAN_MOTION_DDOT":0}]
